ORBCOMM FM05            
1 25117U 97084F   24206.31314451  .00003363  00000+0  10343-2 0  9997
2 25117  45.0148 139.2619 0003641   6.8737 353.2162 14.43127810393194
ORBCOMM FM06            
1 25118U 97084G   24206.90090962  .00003787  00000+0  11570-2 0  9994
2 25118  45.0139 136.5759 0002718  16.4450  32.4477 14.43227939394192
ORBCOMM FM07            
1 25119U 97084H   24206.88759276  .00003360  00000+0  10333-2 0  9995
2 25119  45.0135 137.2263 0004337   3.6467 356.4414 14.43125333394209
ORBCOMM FM03            
1 25158U 98007B   24206.38835549  .00003431  00000+0  12968-2 0  9992
2 25158 107.9704 183.0501 0045431 101.2144 259.4106 14.32486501377063
ORBCOMM FM04            
1 25159U 98007C   24206.85167742  .00002509  00000+0  95830-3 0  9993
2 25159 107.9690 186.9888 0041023  97.9146 262.6652 14.32757423377419
ORBCOMM FM17            
1 25413U 98046A   24206.77040640  .00002350  00000+0  89436-3 0  9996
2 25413  44.9957   1.0598 0000788   3.3093 356.7759 14.33415113356168
ORBCOMM FM18            
1 25414U 98046B   24206.68698236  .00002683  00000+0  95778-3 0  9992
2 25414  44.9934 286.9241 0001680  71.9071 288.1959 14.36271801357126
ORBCOMM FM19            
1 25415U 98046C   24206.68692005  .00002342  00000+0  84524-3 0  9990
2 25415  44.9944 288.4375 0000614  32.6334  97.4127 14.36103202357087
